{"type": "FeatureCollection", "features": [ {"type": "Feature", "properties": {"norad_id": 31429, "name": "FENGYUN 1C DEB", "group": "fengyun-1c-debris", "lat": -69.08567895403463, "lon": -153.38021254764223, "alt_km": 830.4164160307255, "timestamp": "2025-12-27T11:23:20.179826+00:00", "meta": {"OBJECT_NAME": "FENGYUN 1C DEB", "OBJECT_ID": "1999-025BTR", "EPOCH": "2025-12-22T22:45:46.278720", "MEAN_MOTION": 14.22608914, "ECCENTRICITY": 0.00141272, "INCLINATION": 98.6873, "RA_OF_ASC_NODE": 45.7417, "ARG_OF_PERICENTER": 35.194, "MEAN_ANOMALY": 88.8738, "EPHEMERIS_TYPE": 0, "CLASSIFICATION_TYPE": "U", "NORAD_CAT_ID": 31429, "ELEMENT_SET_NO": 999, "REV_AT_EPOCH": 96098, "BSTAR": 0.00092186864, "MEAN_MOTION_DOT": 2.019e-05, "MEAN_MOTION_DDOT": 0}, "tle": {"line1": "1 31429U 99025BTR 25356.94845230  .00002019  00000+0  92187-3 0  9991", "line2": "2 31429  98.6873  45.7417 0014127  35.1940  88.8738 14.22608914960988"}}, "geometry": {"type": "Point", "coordinates": [-153.38021254764223, -69.08567895403463]}}, {"type": "Feature", "properties": {"norad_id": 31430, "name": "FENGYUN 1C DEB", "group": "fengyun-1c-debris", "lat": -45.35285678823156, "lon": 73.41909897474383, "alt_km": 799.4923609464631, "timestamp": "2025-12-27T11:23:20.179837+00:00", "meta": {"OBJECT_NAME": "FENGYUN 1C DEB", "OBJECT_ID": "1999-025BTS", "EPOCH": "2025-12-27T03:26:20.469408", "MEAN_MOTION": 14.25665292, "ECCENTRICITY": 0.0026172, "INCLINATION": 98.7421, "RA_OF_ASC_NODE": 64.1269, "ARG_OF_PERICENTER": 359.4347, "MEAN_ANOMALY": 55.6957, "EPHEMERIS_TYPE": 0, "CLASSIFICATION_TYPE": "U", "NORAD_CAT_ID": 31430, "ELEMENT_SET_NO": 999, "REV_AT_EPOCH": 96323, "BSTAR": 0.0010639, "MEAN_MOTION_DOT": 2.487e-05, "MEAN_MOTION_DDOT": 0}, "tle": {"line1": "1 31430U 99025BTS 25361.14329247  .00002487  00000+0  10639-2 0  9996", "line2": "2 31430  98.7421  64.1269 0026172 359.4347  55.6957 14.25665292963237"}}, "geometry": {"type": "Point", "coordinates": [73.41909897474383, -45.35285678823156]}}, {"type": "Feature", "properties": {"norad_id": 31431, "name": "FENGYUN 1C DEB", "group": "fengyun-1c-debris", "lat": 80.74586972354543, "lon": 136.0625176085721, "alt_km": 800.1841489862636, "timestamp": "2025-12-27T11:23:20.179847+00:00", "meta": {"OBJECT_NAME": "FENGYUN 1C DEB", "OBJECT_ID": "1999-025BTT", "EPOCH": "2025-12-17T02:48:02.899008", "MEAN_MOTION": 14.0310372, "ECCENTRICITY": 0.01337574, "INCLINATION": 98.5434, "RA_OF_ASC_NODE": 239.0286, "ARG_OF_PERICENTER": 83.045, "MEAN_ANOMALY": 278.5911, "EPHEMERIS_TYPE": 0, "CLASSIFICATION_TYPE": "U", "NORAD_CAT_ID": 31431, "ELEMENT_SET_NO": 999, "REV_AT_EPOCH": 94593, "BSTAR": 0.001336432, "MEAN_MOTION_DOT": 2.211e-05, "MEAN_MOTION_DDOT": 0}, "tle": {"line1": "1 31431U 99025BTT 25351.11670022  .00002211  00000+0  13364-2 0  9996", "line2": "2 31431  98.5434 239.0286 0133757  83.0450 278.5911 14.03103720945937"}}, "geometry": {"type": "Point", "coordinates": [136.0625176085721, 80.74586972354543]}}, {"type": "Feature", "properties": {"norad_id": 31433, "name": "FENGYUN 1C DEB", "group": "fengyun-1c-debris", "lat": 52.3966896041026, "lon": 95.424276584139, "alt_km": 855.7203766091325, "timestamp": "2025-12-27T11:23:20.179857+00:00", "meta": {"OBJECT_NAME": "FENGYUN 1C DEB", "OBJECT_ID": "1999-025BTV", "EPOCH": "2025-12-27T04:46:44.781024", "MEAN_MOTION": 14.25603352, "ECCENTRICITY": 0.0100058, "INCLINATION": 98.4097, "RA_OF_ASC_NODE": 264.0862, "ARG_OF_PERICENTER": 348.2464, "MEAN_ANOMALY": 165.0785, "EPHEMERIS_TYPE": 0, "CLASSIFICATION_TYPE": "U", "NORAD_CAT_ID": 31433, "ELEMENT_SET_NO": 999, "REV_AT_EPOCH": 95758, "BSTAR": 0.0032094, "MEAN_MOTION_DOT": 7.975e-05, "MEAN_MOTION_DDOT": 0}, "tle": {"line1": "1 31433U 99025BTV 25361.19912941  .00007975  00000+0  32094-2 0  9999", "line2": "2 31433  98.4097 264.0862 0100058 348.2464 165.0785 14.25603352957583"}}, "geometry": {"type": "Point", "coordinates": [95.424276584139, 52.3966896041026]}}, {"type": "Feature", "properties": {"norad_id": 31435, "name": "FENGYUN 1C DEB", "group": "fengyun-1c-debris", "lat": -63.93482874376812, "lon": -24.528152274160554, "alt_km": 755.8639214443301, "timestamp": "2025-12-27T11:23:20.179867+00:00", "meta": {"OBJECT_NAME": "FENGYUN 1C DEB", "OBJECT_ID": "1999-025BTX", "EPOCH": "2025-12-26T22:42:39.204576", "MEAN_MOTION": 14.53469048, "ECCENTRICITY": 0.0149591, "INCLINATION": 99.0371, "RA_OF_ASC_NODE": 173.8904, "ARG_OF_PERICENTER": 137.2878, "MEAN_ANOMALY": 224.0058, "EPHEMERIS_TYPE": 0, "CLASSIFICATION_TYPE": "U", "NORAD_CAT_ID": 31435, "ELEMENT_SET_NO": 999, "REV_AT_EPOCH": 98579, "BSTAR": 0.0002521, "MEAN_MOTION_DOT": 1.158e-05, "MEAN_MOTION_DDOT": 0}, "tle": {"line1": "1 31435U 99025BTX 25360.94628709  .00001158  00000+0  25210-3 0  9999", "line2": "2 31435  99.0371 173.8904 0149591 137.2878 224.0058 14.53469048985797"}}, "geometry": {"type": "Point", "coordinates": [-24.528152274160554, -63.93482874376812]}}, {"type": "Feature", "properties": {"norad_id": 31436, "name": "FENGYUN 1C DEB", "group": "fengyun-1c-debris", "lat": -25.57854940117531, "lon": 32.05203165769671, "alt_km": 559.9168032648004, "timestamp": "2025-12-27T11:23:20.179878+00:00", "meta": {"OBJECT_NAME": "FENGYUN 1C DEB", "OBJECT_ID": "1999-025BTY", "EPOCH": "2025-12-26T13:43:09.728832", "MEAN_MOTION": 14.95020803, "ECCENTRICITY": 0.0040868, "INCLINATION": 98.8845, "RA_OF_ASC_NODE": 215.3242, "ARG_OF_PERICENTER": 196.1273, "MEAN_ANOMALY": 192.864, "EPHEMERIS_TYPE": 0, "CLASSIFICATION_TYPE": "U", "NORAD_CAT_ID": 31436, "ELEMENT_SET_NO": 999, "REV_AT_EPOCH": 97083, "BSTAR": 0.0047147, "MEAN_MOTION_DOT": 0.00052734, "MEAN_MOTION_DDOT": 0}, "tle": {"line1": "1 31436U 99025BTY 25360.57164038  .00052734  00000+0  47147-2 0  9997", "line2": "2 31436  98.8845 215.3242 0040868 196.1273 192.8640 14.95020803970834"}}, "geometry": {"type": "Point", "coordinates": [32.05203165769671, -25.57854940117531]}}, {"type": "Feature", "properties": {"norad_id": 31437, "name": "FENGYUN 1C DEB", "group": "fengyun-1c-debris", "lat": -39.69726085426434, "lon": -104.32524178278348, "alt_km": 744.7017284297126, "timestamp": "2025-12-27T11:23:20.179888+00:00", "meta": {"OBJECT_NAME": "FENGYUN 1C DEB", "OBJECT_ID": "1999-025BTZ", "EPOCH": "2025-12-24T04:08:22.097472", "MEAN_MOTION": 14.42670174, "ECCENTRICITY": 0.00163555, "INCLINATION": 98.8638, "RA_OF_ASC_NODE": 79.687, "ARG_OF_PERICENTER": 215.2128, "MEAN_ANOMALY": 144.7981, "EPHEMERIS_TYPE": 0, "CLASSIFICATION_TYPE": "U", "NORAD_CAT_ID": 31437, "ELEMENT_SET_NO": 999, "REV_AT_EPOCH": 96675, "BSTAR": 0.0024316964, "MEAN_MOTION_DOT": 8.062e-05, "MEAN_MOTION_DDOT": 0}, "tle": {"line1": "1 31437U 99025BTZ 25358.17247798  .00008062  00000+0  24317-2 0  9995", "line2": "2 31437  98.8638  79.6870 0016355 215.2128 144.7981 14.42670174966753"}}, "geometry": {"type": "Point", "coordinates": [-104.32524178278348, -39.69726085426434]}}, {"type": "Feature", "properties": {"norad_id": 31439, "name": "FENGYUN 1C DEB", "group": "fengyun-1c-debris", "lat": 33.83910242445175, "lon": 0.9805895463789355, "alt_km": 900.0258215994172, "timestamp": "2025-12-27T11:23:20.179898+00:00", "meta": {"OBJECT_NAME": "FENGYUN 1C DEB", "OBJECT_ID": "1999-025BUB", "EPOCH": "2025-12-25T06:10:52.154112", "MEAN_MOTION": 13.95604429, "ECCENTRICITY": 0.0138111, "INCLINATION": 98.9166, "RA_OF_ASC_NODE": 4.8768, "ARG_OF_PERICENTER": 127.4201, "MEAN_ANOMALY": 296.0838, "EPHEMERIS_TYPE": 0, "CLASSIFICATION_TYPE": "U", "NORAD_CAT_ID": 31439, "ELEMENT_SET_NO": 999, "REV_AT_EPOCH": 63407, "BSTAR": 0.00081777, "MEAN_MOTION_DOT": 1.164e-05, "MEAN_MOTION_DDOT": 0}, "tle": {"line1": "1 31439U 99025BUB 25359.25754808  .00001164  00000+0  81777-3 0  9992", "line2": "2 31439  98.9166   4.8768 0138111 127.4201 296.0838 13.95604429634075"}}, "geometry": {"type": "Point", "coordinates": [0.9805895463789355, 33.83910242445175]}}, {"type": "Feature", "properties": {"norad_id": 31440, "name": "FENGYUN 1C DEB", "group": "fengyun-1c-debris", "lat": -1.744945797467544, "lon": 89.97332344202856, "alt_km": 759.2273040040609, "timestamp": "2025-12-27T11:23:20.179908+00:00", "meta": {"OBJECT_NAME": "FENGYUN 1C DEB", "OBJECT_ID": "1999-025BUC", "EPOCH": "2025-12-24T23:13:50.173248", "MEAN_MOTION": 14.36819252, "ECCENTRICITY": 0.00372153, "INCLINATION": 98.745, "RA_OF_ASC_NODE": 87.1591, "ARG_OF_PERICENTER": 304.5091, "MEAN_ANOMALY": 55.2582, "EPHEMERIS_TYPE": 0, "CLASSIFICATION_TYPE": "U", "NORAD_CAT_ID": 31440, "ELEMENT_SET_NO": 999, "REV_AT_EPOCH": 96501, "BSTAR": 0.0019081649, "MEAN_MOTION_DOT": 5.639e-05, "MEAN_MOTION_DDOT": 0}, "tle": {"line1": "1 31440U 99025BUC 25358.96794182  .00005639  00000+0  19082-2 0  9990", "line2": "2 31440  98.7450  87.1591 0037215 304.5091  55.2582 14.36819252965017"}}, "geometry": {"type": "Point", "coordinates": [89.97332344202856, -1.744945797467544]}}, {"type": "Feature", "properties": {"norad_id": 31441, "name": "FENGYUN 1C DEB", "group": "fengyun-1c-debris", "lat": -72.59556811769315, "lon": 14.95030720443861, "alt_km": 590.5877806798353, "timestamp": "2025-12-27T11:23:20.179918+00:00", "meta": {"OBJECT_NAME": "FENGYUN 1C DEB", "OBJECT_ID": "1999-025BUD", "EPOCH": "2025-12-27T02:05:43.393056", "MEAN_MOTION": 14.76269445, "ECCENTRICITY": 0.0099941, "INCLINATION": 99.3113, "RA_OF_ASC_NODE": 226.0652, "ARG_OF_PERICENTER": 291.416, "MEAN_ANOMALY": 67.6407, "EPHEMERIS_TYPE": 0, "CLASSIFICATION_TYPE": "U", "NORAD_CAT_ID": 31441, "ELEMENT_SET_NO": 999, "REV_AT_EPOCH": 64302, "BSTAR": 0.0067795, "MEAN_MOTION_DOT": 0.00051263, "MEAN_MOTION_DDOT": 0}, "tle": {"line1": "1 31441U 99025BUD 25361.08730779  .00051263  00000+0  67795-2 0  9998", "line2": "2 31441  99.3113 226.0652 0099941 291.4160  67.6407 14.76269445643022"}}, "geometry": {"type": "Point", "coordinates": [14.95030720443861, -72.59556811769315]}}]}